OBJECT_NAME,OBJECT_ID,EPOCH,MEAN_MOTION,ECCENTRICITY,INCLINATION,RA_OF_ASC_NODE,ARG_OF_PERICENTER,MEAN_ANOMALY,EPHEMERIS_TYPE,CLASSIFICATION_TYPE,NORAD_CAT_ID,ELEMENT_SET_NO,REV_AT_EPOCH,BSTAR,MEAN_MOTION_DOT,MEAN_MOTION_DDOT
INTELSAT 23 (IS-23),2012-057A,2026-07-24T05:50:28.997088,1.00268917,.00003335,0.0185,316.2393,228.7167,151.6028,0,U,38867,999,5032,0,-.28E-5,0
FM-6,2013-058A,2026-07-24T06:51:22.167072,1.00271042,.00005084,0.0110,35.6187,153.2773,99.5862,0,U,39360,999,4644,0,-.1E-6,0
INTELSAT 30 (IS-30),2014-062A,2026-07-24T05:40:39.715392,1.00272274,.00016819,0.0186,57.6810,340.8744,253.5186,0,U,40271,999,716,0,-.146E-5,0
DIRECTV 14,2014-078B,2026-07-24T04:42:57.060000,1.00272657,.00006928,0.0104,47.9759,351.7167,233.7276,0,U,40333,999,4241,0,-.12E-5,0
DIRECTV 15,2015-026A,2026-07-24T05:36:48.237696,1.00270845,.00004416,0.0255,80.8623,327.9803,234.4289,0,U,40663,999,4083,0,-.97E-6,0
SKY MEXICO-1,2015-026B,2026-07-24T05:43:07.202784,1.00272290,.00026802,0.0135,5.0968,129.1153,174.7230,0,U,40664,999,4082,0,-.229E-5,0
INTELSAT 34 (IS-34),2015-039A,2026-07-24T05:49:44.069088,1.00270198,.00004326,0.0097,26.2728,23.2832,284.3406,0,U,40874,999,4000,0,-.28E-5,0
INTELSAT 31 (IS-31),2016-035A,2026-07-24T05:39:32.245632,1.00272099,.00008306,0.0035,13.4141,299.4868,338.8907,0,U,41581,999,3705,0,-.146E-5,0
INTELSAT 36 (IS-36),2016-053A,2026-07-24T04:42:38.627424,1.00269486,.0002388,0.0101,36.0550,314.5912,90.4218,0,U,41747,999,3632,0,-.19E-6,0
INTELSAT 32E (IS-32E),2017-007B,2026-07-24T04:33:38.618784,1.00270599,.00004806,0.0222,52.6402,357.3476,277.1569,0,U,41945,999,3459,0,0,0
INTELSAT 35E (IS-35E),2017-041A,2026-07-24T05:55:43.494816,1.00271324,.00021532,0.0167,62.9169,56.8056,236.6757,0,U,42818,999,3318,0,-.233E-5,0
INTELSAT 37E (IS-37E),2017-059A,2026-07-24T06:00:28.040256,1.00270320,.00030997,0.0259,60.1564,69.7696,244.1734,0,U,42950,999,3243,0,0,0
AZERSPACE 2 (IS-38),2018-074A,2026-07-23T08:33:38.784960,1.00269800,.0001318,0.0174,47.4997,54.2391,12.8730,0,U,43632,999,2881,0,.141E-5,0
HORIZONS-3E,2018-074B,2026-07-23T13:47:14.353152,1.00272034,.00003154,0.0322,239.3133,79.1148,358.6734,0,U,43633,999,2870,0,-.26E-6,0
AT&T T-16,2019-034A,2026-07-23T02:14:23.451072,1.00273461,.00006317,0.0154,76.6092,292.9337,224.0216,0,U,44333,999,2599,0,-.111E-5,0
INTELSAT 39 (IS-39),2019-049B,2026-07-23T18:24:38.988288,1.00271086,.00005942,0.0221,55.4484,320.7391,263.4215,0,U,44476,999,2549,0,0,0
GALAXY 30 (G-30),2020-056C,2026-07-24T05:23:22.322688,1.00270186,.00024257,0.0239,56.9335,66.5104,134.3396,0,U,46114,999,2166,0,0,0
GALAXY 33 (G-33),2022-128A,2026-07-24T05:20:05.320320,1.00271583,.00020621,0.0163,25.8496,88.8360,134.2741,0,U,54026,999,1411,0,.84E-6,0
GALAXY 34 (G-34),2022-128B,2026-07-24T00:20:51.385632,1.00272081,.00017376,0.0096,49.6818,79.2329,49.0348,0,U,54027,999,1428,0,.64E-6,0
GALAXY 31 (G-31),2022-153A,2026-07-24T07:41:07.901376,1.00269970,.00014987,0.0203,72.3340,54.6120,169.3786,0,U,54243,999,750,0,0,0
GALAXY 32 (G-32),2022-153B,2026-07-24T05:39:37.537632,1.00272081,.00015223,0.0109,49.4193,9.7282,236.7204,0,U,54244,999,1351,0,-.169E-5,0
GALAXY 35 (G-35),2022-170A,2026-07-24T05:41:37.275072,1.00269583,.00021738,0.0158,66.1810,55.8884,172.1930,0,U,54741,999,1326,0,0,0
GALAXY 36 (G-36),2022-170B,2026-07-24T05:40:14.978208,1.00272022,.0002796,0.0232,119.7967,341.7720,196.4505,0,U,54742,999,1314,0,-.18E-5,0
GALAXY 37 (G-37),2023-112A,2026-07-24T06:00:33.074784,1.00271892,.00021553,0.0141,67.2645,48.9109,148.9320,0,U,57493,999,1091,0,.53E-6,0
