{"epoch":1784902576,"count":18312,"objects":[{"id":"38867","name":"INTELSAT 23","type":"PAYLOAD","l1":"1 38867U 12057A   26205.24339117 -.00000280  00000-0  00000-0 0  9993","l2":"2 38867   0.0185 316.2393 0000334 228.7167 151.6028  1.00268917 50325"},{"id":"39360","name":"SIRIUS FM-6","type":"PAYLOAD","l1":"1 39360U 13058A   26205.28567323 -.00000010  00000-0  00000-0 0  9991","l2":"2 39360   0.0110  35.6187 0000508 153.2773  99.5862  1.00271042 46440"},{"id":"40271","name":"INTELSAT 30","type":"PAYLOAD","l1":"1 40271U 14062A   26205.23657078 -.00000146  00000-0  00000-0 0  9992","l2":"2 40271   0.0186  57.6810 0001682 340.8744 253.5186  1.00272274  7164"},{"id":"40333","name":"DIRECTV 14","type":"PAYLOAD","l1":"1 40333U 14078B   26205.19649375 -.00000120  00000-0  00000-0 0  9996","l2":"2 40333   0.0104  47.9759 0000693 351.7167 233.7276  1.00272657 42410"},{"id":"40663","name":"DIRECTV 15","type":"PAYLOAD","l1":"1 40663U 15026A   26205.23389164 -.00000097  00000-0  00000-0 0  9991","l2":"2 40663   0.0255  80.8623 0000442 327.9803 234.4289  1.00270845 40836"},{"id":"40664","name":"SKY MEXICO-1","type":"PAYLOAD","l1":"1 40664U 15026B   26205.23827781 -.00000229  00000-0  00000-0 0  9991","l2":"2 40664   0.0135   5.0968 0002680 129.1153 174.7230  1.00272290 40828"},{"id":"40874","name":"INTELSAT 34","type":"PAYLOAD","l1":"1 40874U 15039A   26205.24287117 -.00000280  00000-0  00000-0 0  9999","l2":"2 40874   0.0097  26.2728 0000433  23.2832 284.3406  1.00270198 40007"},{"id":"41581","name":"INTELSAT 31","type":"PAYLOAD","l1":"1 41581U 16035A   26205.23578988 -.00000146  00000-0  00000-0 0  9991","l2":"2 41581   0.0035  13.4141 0000831 299.4868 338.8907  1.00272099 37054"},{"id":"41747","name":"INTELSAT 36","type":"PAYLOAD","l1":"1 41747U 16053A   26205.19628041 -.00000019  00000-0  00000-0 0  9995","l2":"2 41747   0.0101  36.0550 0002388 314.5912  90.4218  1.00269486 36326"},{"id":"41945","name":"INTELSAT 32E","type":"PAYLOAD","l1":"1 41945U 17007B   26205.19003031  .00000000  00000-0  00000-0 0  9990","l2":"2 41945   0.0222  52.6402 0000481 357.3476 277.1569  1.00270599 34599"},{"id":"42818","name":"INTELSAT 35E","type":"PAYLOAD","l1":"1 42818U 17041A   26205.24703119 -.00000233  00000-0  00000-0 0  9997","l2":"2 42818   0.0167  62.9169 0002153  56.8056 236.6757  1.00271324 33184"},{"id":"42950","name":"INTELSAT 37E","type":"PAYLOAD","l1":"1 42950U 17059A   26205.25032454  .00000000  00000-0  00000-0 0  9992","l2":"2 42950   0.0259  60.1564 0003100  69.7696 244.1734  1.00270320 32439"},{"id":"43632","name":"AZERSPACE 2/INTELSAT 38","type":"PAYLOAD","l1":"1 43632U 18074A   26204.35669890  .00000141  00000-0  00000+0 0  9993","l2":"2 43632   0.0174  47.4997 0001318  54.2391  12.8730  1.00269800 28815"},{"id":"43633","name":"HORIZONS 3E","type":"PAYLOAD","l1":"1 43633U 18074B   26204.57447168 -.00000026  00000-0  00000-0 0  9994","l2":"2 43633   0.0322 239.3133 0000315  79.1148 358.6734  1.00272034 28703"},{"id":"44333","name":"AT&T T-16","type":"PAYLOAD","l1":"1 44333U 19034A   26204.09332698 -.00000111  00000-0  00000-0 0  9992","l2":"2 44333   0.0154  76.6092 0000632 292.9337 224.0216  1.00273461 25991"},{"id":"44476","name":"INTELSAT 39","type":"PAYLOAD","l1":"1 44476U 19049B   26204.76711792  .00000000  00000-0  00000-0 0  9992","l2":"2 44476   0.0221  55.4484 0000594 320.7391 263.4215  1.00271086 25493"},{"id":"46114","name":"GALAXY 30","type":"PAYLOAD","l1":"1 46114U 20056C   26205.22456392  .00000000  00000-0  00000-0 0  9997","l2":"2 46114   0.0239  56.9335 0002426  66.5104 134.3396  1.00270186 21668"},{"id":"54026","name":"GALAXY 33","type":"PAYLOAD","l1":"1 54026U 22128A   26205.22228380  .00000084  00000-0  00000-0 0  9996","l2":"2 54026   0.0163  25.8496 0002062  88.8360 134.2741  1.00271583 14112"},{"id":"54027","name":"GALAXY 34","type":"PAYLOAD","l1":"1 54027U 22128B   26205.01448363  .00000064  00000-0  00000-0 0  9997","l2":"2 54027   0.0096  49.6818 0001738  79.2329  49.0348  1.00272081 14286"},{"id":"54243","name":"GALAXY 31","type":"PAYLOAD","l1":"1 54243U 22153A   26205.32023034  .00000000  00000-0  00000-0 0  9993","l2":"2 54243   0.0203  72.3340 0001499  54.6120 169.3786  1.00269970  7501"},{"id":"54244","name":"GALAXY 32","type":"PAYLOAD","l1":"1 54244U 22153B   26205.23585113 -.00000169  00000-0  00000-0 0  9992","l2":"2 54244   0.0109  49.4193 0001522   9.7282 236.7204  1.00272081 13514"},{"id":"54741","name":"GALAXY 35","type":"PAYLOAD","l1":"1 54741U 22170A   26205.23723698  .00000000  00000-0  00000-0 0  9998","l2":"2 54741   0.0158  66.1810 0002174  55.8884 172.1930  1.00269583 13260"},{"id":"54742","name":"GALAXY 36","type":"PAYLOAD","l1":"1 54742U 22170B   26205.23628447 -.00000180  00000-0  00000-0 0  9995","l2":"2 54742   0.0232 119.7967 0002796 341.7720 196.4505  1.00272022 13144"},{"id":"57493","name":"GALAXY 37","type":"PAYLOAD","l1":"1 57493U 23112A   26205.25038281  .00000053  00000-0  00000-0 0  9999","l2":"2 57493   0.0141  67.2645 0002155  48.9109 148.9320  1.00271892 10918"}]}